TEVEL2-2                
1 63219U 25052K   26068.64848259  .00020339  00000+0  69428-3 0  9991
2 63219  97.3987 324.7700 0004693 105.7930 254.3828 15.30343745 54855
STARLINK-35774          
1 66283U 25247U   26068.63578590  .00024267  00000+0  82924-3 0  9998
2 66283  53.1571 191.8153 0001097  84.7187 275.3939 15.30182502 21029
